{"type": "FeatureCollection", "features": [ {"type": "Feature", "properties": {"norad_id": 44476, "name": "INTELSAT 39 (IS-39)", "group": "intelsat", "lat": -0.02027864116912292, "lon": -72.94893256963815, "alt_km": 35789.51212019397, "timestamp": "2025-12-09T09:46:47.315121+00:00", "meta": {"OBJECT_NAME": "INTELSAT 39 (IS-39)", "OBJECT_ID": "2019-049B", "EPOCH": "2025-12-09T03:35:43.926144", "MEAN_MOTION": 1.00270125, "ECCENTRICITY": 0.0001017, "INCLINATION": 0.0147, "RA_OF_ASC_NODE": 314.4755, "ARG_OF_PERICENTER": 198.5375, "MEAN_ANOMALY": 41.0167, "EPHEMERIS_TYPE": 0, "CLASSIFICATION_TYPE": "U", "NORAD_CAT_ID": 44476, "ELEMENT_SET_NO": 999, "REV_AT_EPOCH": 2322, "BSTAR": 0, "MEAN_MOTION_DOT": 3.6e-07, "MEAN_MOTION_DDOT": 0}, "tle": {"line1": "1 44476U 19049B   25343.14981396  .00000036  00000+0  00000+0 0  9993", "line2": "2 44476   0.0147 314.4755 0001017 198.5375  41.0167  1.00270125 23221"}}, "geometry": {"type": "Point", "coordinates": [-72.94893256963815, -0.02027864116912292]}}, {"type": "Feature", "properties": {"norad_id": 46114, "name": "GALAXY 30 (G-30)", "group": "intelsat", "lat": 0.03576777286663431, "lon": 100.07721185189934, "alt_km": 35795.522307501065, "timestamp": "2025-12-09T09:46:47.315133+00:00", "meta": {"OBJECT_NAME": "GALAXY 30 (G-30)", "OBJECT_ID": "2020-056C", "EPOCH": "2025-12-09T02:50:38.725728", "MEAN_MOTION": 1.00271328, "ECCENTRICITY": 0.0002397, "INCLINATION": 0.0174, "RA_OF_ASC_NODE": 357.6559, "ARG_OF_PERICENTER": 259.2548, "MEAN_ANOMALY": 98.8607, "EPHEMERIS_TYPE": 0, "CLASSIFICATION_TYPE": "U", "NORAD_CAT_ID": 46114, "ELEMENT_SET_NO": 999, "REV_AT_EPOCH": 1938, "BSTAR": 0, "MEAN_MOTION_DOT": 3.9e-07, "MEAN_MOTION_DDOT": 0}, "tle": {"line1": "1 46114U 20056C   25343.11850377  .00000039  00000+0  00000+0 0  9998", "line2": "2 46114   0.0174 357.6559 0002397 259.2548  98.8607  1.00271328 19389"}}, "geometry": {"type": "Point", "coordinates": [100.07721185189934, 0.03576777286663431]}}, {"type": "Feature", "properties": {"norad_id": 54026, "name": "GALAXY 33 (G-33)", "group": "intelsat", "lat": 0.0219924262018401, "lon": 92.08519592431081, "alt_km": 35794.88550233586, "timestamp": "2025-12-09T09:46:47.315145+00:00", "meta": {"OBJECT_NAME": "GALAXY 33 (G-33)", "OBJECT_ID": "2022-128A", "EPOCH": "2025-12-08T14:41:01.040640", "MEAN_MOTION": 1.00271783, "ECCENTRICITY": 0.00022673, "INCLINATION": 0.0159, "RA_OF_ASC_NODE": 302.3575, "ARG_OF_PERICENTER": 307.2936, "MEAN_ANOMALY": 275.2199, "EPHEMERIS_TYPE": 0, "CLASSIFICATION_TYPE": "U", "NORAD_CAT_ID": 54026, "ELEMENT_SET_NO": 999, "REV_AT_EPOCH": 1183, "BSTAR": 0, "MEAN_MOTION_DOT": 8.1e-07, "MEAN_MOTION_DDOT": 0}, "tle": {"line1": "1 54026U 22128A   25342.61181760  .00000081  00000+0  00000+0 0  9995", "line2": "2 54026   0.0159 302.3575 0002267 307.2936 275.2199  1.00271783 11833"}}, "geometry": {"type": "Point", "coordinates": [92.08519592431081, 0.0219924262018401]}}, {"type": "Feature", "properties": {"norad_id": 54027, "name": "GALAXY 34 (G-34)", "group": "intelsat", "lat": 0.03382806713480651, "lon": 96.1483534152775, "alt_km": 35791.17537426951, "timestamp": "2025-12-09T09:46:47.315157+00:00", "meta": {"OBJECT_NAME": "GALAXY 34 (G-34)", "OBJECT_ID": "2022-128B", "EPOCH": "2025-12-08T12:04:59.032992", "MEAN_MOTION": 1.00270185, "ECCENTRICITY": 0.00012919, "INCLINATION": 0.0269, "RA_OF_ASC_NODE": 317.8338, "ARG_OF_PERICENTER": 287.9468, "MEAN_ANOMALY": 244.0411, "EPHEMERIS_TYPE": 0, "CLASSIFICATION_TYPE": "U", "NORAD_CAT_ID": 54027, "ELEMENT_SET_NO": 999, "REV_AT_EPOCH": 1200, "BSTAR": 0, "MEAN_MOTION_DOT": 0, "MEAN_MOTION_DDOT": 0}, "tle": {"line1": "1 54027U 22128B   25342.50346103  .00000000  00000+0  00000+0 0  9999", "line2": "2 54027   0.0269 317.8338 0001291 287.9468 244.0411  1.00270185 12000"}}, "geometry": {"type": "Point", "coordinates": [96.1483534152775, 0.03382806713480651]}}, {"type": "Feature", "properties": {"norad_id": 54243, "name": "GALAXY 31 (G-31)", "group": "intelsat", "lat": 0.005578725776461344, "lon": 104.09050346960137, "alt_km": 35793.934598916654, "timestamp": "2025-12-09T09:46:47.315169+00:00", "meta": {"OBJECT_NAME": "GALAXY 31 (G-31)", "OBJECT_ID": "2022-153A", "EPOCH": "2025-12-08T21:35:10.619808", "MEAN_MOTION": 1.00271699, "ECCENTRICITY": 0.00019185, "INCLINATION": 0.0205, "RA_OF_ASC_NODE": 257.1315, "ARG_OF_PERICENTER": 12.3567, "MEAN_ANOMALY": 11.2077, "EPHEMERIS_TYPE": 0, "CLASSIFICATION_TYPE": "U", "NORAD_CAT_ID": 54243, "ELEMENT_SET_NO": 999, "REV_AT_EPOCH": 522, "BSTAR": 0, "MEAN_MOTION_DOT": 1.5e-07, "MEAN_MOTION_DDOT": 0}, "tle": {"line1": "1 54243U 22153A   25342.89942847  .00000015  00000+0  00000+0 0  9992", "line2": "2 54243   0.0205 257.1315 0001918  12.3567  11.2077  1.00271699  5226"}}, "geometry": {"type": "Point", "coordinates": [104.09050346960137, 0.005578725776461344]}}, {"type": "Feature", "properties": {"norad_id": 54244, "name": "GALAXY 32 (G-32)", "group": "intelsat", "lat": 0.01374297042013807, "lon": 134.085772773833, "alt_km": 35797.813213864945, "timestamp": "2025-12-09T09:46:47.315181+00:00", "meta": {"OBJECT_NAME": "GALAXY 32 (G-32)", "OBJECT_ID": "2022-153B", "EPOCH": "2025-12-08T12:27:22.096800", "MEAN_MOTION": 1.00270602, "ECCENTRICITY": 0.00027139, "INCLINATION": 0.0093, "RA_OF_ASC_NODE": 341.4541, "ARG_OF_PERICENTER": 326.1977, "MEAN_ANOMALY": 225.7141, "EPHEMERIS_TYPE": 0, "CLASSIFICATION_TYPE": "U", "NORAD_CAT_ID": 54244, "ELEMENT_SET_NO": 999, "REV_AT_EPOCH": 1123, "BSTAR": 0, "MEAN_MOTION_DOT": -1.72e-06, "MEAN_MOTION_DDOT": 0}, "tle": {"line1": "1 54244U 22153B   25342.51900575 -.00000172  00000+0  00000+0 0  9999", "line2": "2 54244   0.0093 341.4541 0002713 326.1977 225.7141  1.00270602 11230"}}, "geometry": {"type": "Point", "coordinates": [134.085772773833, 0.01374297042013807]}}, {"type": "Feature", "properties": {"norad_id": 54741, "name": "GALAXY 35 (G-35)", "group": "intelsat", "lat": 0.01899475413475773, "lon": 131.98169315966257, "alt_km": 35793.89689935382, "timestamp": "2025-12-09T09:46:47.315193+00:00", "meta": {"OBJECT_NAME": "GALAXY 35 (G-35)", "OBJECT_ID": "2022-170A", "EPOCH": "2025-12-08T21:43:17.342112", "MEAN_MOTION": 1.00271043, "ECCENTRICITY": 0.00026619, "INCLINATION": 0.0213, "RA_OF_ASC_NODE": 80.421, "ARG_OF_PERICENTER": 183.9163, "MEAN_ANOMALY": 46.3017, "EPHEMERIS_TYPE": 0, "CLASSIFICATION_TYPE": "U", "NORAD_CAT_ID": 54741, "ELEMENT_SET_NO": 999, "REV_AT_EPOCH": 1098, "BSTAR": 0, "MEAN_MOTION_DOT": -1.6e-06, "MEAN_MOTION_DDOT": 0}, "tle": {"line1": "1 54741U 22170A   25342.90506183 -.00000160  00000+0  00000+0 0  9997", "line2": "2 54741   0.0213  80.4210 0002661 183.9163  46.3017  1.00271043 10987"}}, "geometry": {"type": "Point", "coordinates": [131.98169315966257, 0.01899475413475773]}}, {"type": "Feature", "properties": {"norad_id": 54742, "name": "GALAXY 36 (G-36)", "group": "intelsat", "lat": 0.017673046671343708, "lon": 136.08507130390296, "alt_km": 35788.40555861194, "timestamp": "2025-12-09T09:46:47.315205+00:00", "meta": {"OBJECT_NAME": "GALAXY 36 (G-36)", "OBJECT_ID": "2022-170B", "EPOCH": "2025-12-08T21:44:24.734976", "MEAN_MOTION": 1.00270813, "ECCENTRICITY": 5.697e-05, "INCLINATION": 0.0079, "RA_OF_ASC_NODE": 28.8642, "ARG_OF_PERICENTER": 254.6251, "MEAN_ANOMALY": 31.516, "EPHEMERIS_TYPE": 0, "CLASSIFICATION_TYPE": "U", "NORAD_CAT_ID": 54742, "ELEMENT_SET_NO": 999, "REV_AT_EPOCH": 1086, "BSTAR": 0, "MEAN_MOTION_DOT": -1.83e-06, "MEAN_MOTION_DDOT": 0}, "tle": {"line1": "1 54742U 22170B   25342.90584184 -.00000183  00000+0  00000+0 0  9990", "line2": "2 54742   0.0079  28.8642 0000569 254.6251  31.5160  1.00270813 10868"}}, "geometry": {"type": "Point", "coordinates": [136.08507130390296, 0.017673046671343708]}}, {"type": "Feature", "properties": {"norad_id": 57493, "name": "GALAXY 37 (G-37)", "group": "intelsat", "lat": 0.026325653777820878, "lon": 98.08833411582985, "alt_km": 35795.74754478533, "timestamp": "2025-12-09T09:46:47.315217+00:00", "meta": {"OBJECT_NAME": "GALAXY 37 (G-37)", "OBJECT_ID": "2023-112A", "EPOCH": "2025-12-08T21:33:25.787232", "MEAN_MOTION": 1.0027141, "ECCENTRICITY": 0.00023504, "INCLINATION": 0.0105, "RA_OF_ASC_NODE": 333.573, "ARG_OF_PERICENTER": 289.258, "MEAN_ANOMALY": 11.4268, "EPHEMERIS_TYPE": 0, "CLASSIFICATION_TYPE": "U", "NORAD_CAT_ID": 57493, "ELEMENT_SET_NO": 999, "REV_AT_EPOCH": 863, "BSTAR": 0, "MEAN_MOTION_DOT": 5e-07, "MEAN_MOTION_DDOT": 0}, "tle": {"line1": "1 57493U 23112A   25342.89821513  .00000050  00000+0  00000+0 0  9993", "line2": "2 57493   0.0105 333.5730 0002350 289.2580  11.4268  1.00271410  8639"}}, "geometry": {"type": "Point", "coordinates": [98.08833411582985, 0.026325653777820878]}}]}